{
  "norad_id": 53084,
  "name": "STARLINK-4319",
  "history": [
    {
      "epoch": "2026-03-28T18:11:50.306496Z",
      "apogee_km": 550.0567970546626,
      "perigee_km": 548.9622289056115,
      "latitude_deg": -7.01722901610086e-05,
      "longitude_deg": 170.87242618566754,
      "height_km": 552.6746024463947,
      "semi_major_axis_km": 6927.646512980137,
      "eccentricity": 7.9e-05,
      "inclination_deg": 97.6022,
      "raan_deg": 270.0061,
      "arg_perigee_deg": 100.6427,
      "mean_anomaly_deg": 259.4888,
      "mean_motion_rev_day": 15.05650535
    },
    {
      "epoch": "2026-03-29T02:10:20.208288Z",
      "apogee_km": 550.0467322582826,
      "perigee_km": 548.9687907333946,
      "latitude_deg": -8.919143090436786e-06,
      "longitude_deg": 51.247806715238504,
      "height_km": 552.6794742945103,
      "semi_major_axis_km": 6927.644761495839,
      "eccentricity": 7.78e-05,
      "inclination_deg": 97.6024,
      "raan_deg": 270.3336,
      "arg_perigee_deg": 101.5254,
      "mean_anomaly_deg": 258.606,
      "mean_motion_rev_day": 15.05651106
    },
    {
      "epoch": "2026-03-30T00:30:08.508384Z",
      "apogee_km": 549.9158179493843,
      "perigee_km": 549.0085795583163,
      "latitude_deg": -5.4478939784799917e-05,
      "longitude_deg": 76.29699891192855,
      "height_km": 552.7448725809278,
      "semi_major_axis_km": 6927.59919875385,
      "eccentricity": 6.548e-05,
      "inclination_deg": 97.6023,
      "raan_deg": 271.2511,
      "arg_perigee_deg": 118.7663,
      "mean_anomaly_deg": 241.3629,
      "mean_motion_rev_day": 15.0566596
    },
    {
      "epoch": "2026-03-30T11:40:02.640288Z",
      "apogee_km": 549.9960477854511,
      "perigee_km": 549.0379532371799,
      "latitude_deg": 7.645334929909978e-05,
      "longitude_deg": -91.17869929162093,
      "height_km": 552.706153675889,
      "semi_major_axis_km": 6927.654000511315,
      "eccentricity": 6.915e-05,
      "inclination_deg": 97.6022,
      "raan_deg": 271.7095,
      "arg_perigee_deg": 105.1236,
      "mean_anomaly_deg": 255.0068,
      "mean_motion_rev_day": 15.05648094
    },
    {
      "epoch": "2026-03-30T18:02:50.736768Z",
      "apogee_km": 550.0049958273594,
      "perigee_km": 549.0545199481767,
      "latitude_deg": -1.9033538462174262e-05,
      "longitude_deg": 173.12079329989413,
      "height_km": 552.7272965456073,
      "semi_major_axis_km": 6927.666757887768,
      "eccentricity": 6.86e-05,
      "inclination_deg": 97.602,
      "raan_deg": 271.9714,
      "arg_perigee_deg": 106.2946,
      "mean_anomaly_deg": 253.8356,
      "mean_motion_rev_day": 15.05643935
    },
    {
      "epoch": "2026-03-31T11:35:32.661888Z",
      "apogee_km": 549.9935283189625,
      "perigee_km": 549.0542760538447,
      "latitude_deg": -2.068964257347133e-05,
      "longitude_deg": -90.05404020788323,
      "height_km": 552.7574739633156,
      "semi_major_axis_km": 6927.660902186403,
      "eccentricity": 6.779e-05,
      "inclination_deg": 97.6017,
      "raan_deg": 272.6918,
      "arg_perigee_deg": 111.1326,
      "mean_anomaly_deg": 248.9973,
      "mean_motion_rev_day": 15.05645844
    },
    {
      "epoch": "2026-04-01T17:53:50.870688Z",
      "apogee_km": 549.9380960393128,
      "perigee_km": 549.1164750550479,
      "latitude_deg": -2.8485310631449212e-05,
      "longitude_deg": 175.36970796432243,
      "height_km": 552.7659813678185,
      "semi_major_axis_km": 6927.66428554718,
      "eccentricity": 5.93e-05,
      "inclination_deg": 97.6015,
      "raan_deg": 273.936,
      "arg_perigee_deg": 115.1025,
      "mean_anomaly_deg": 245.0263,
      "mean_motion_rev_day": 15.05644741
    },
    {
      "epoch": "2026-04-02T17:49:20.972640Z",
      "apogee_km": 549.9111620068834,
      "perigee_km": 549.1380349724923,
      "latitude_deg": 6.382979776026177e-05,
      "longitude_deg": 176.49430574485493,
      "height_km": 552.7287712896423,
      "semi_major_axis_km": 6927.661598489688,
      "eccentricity": 5.58e-05,
      "inclination_deg": 97.6014,
      "raan_deg": 274.9186,
      "arg_perigee_deg": 111.1933,
      "mean_anomaly_deg": 248.9354,
      "mean_motion_rev_day": 15.05645617
    },
    {
      "epoch": "2026-04-02T22:36:26.909568Z",
      "apogee_km": 549.9192638041322,
      "perigee_km": 549.1218904170082,
      "latitude_deg": -2.3701176693946762e-05,
      "longitude_deg": 104.71956805365816,
      "height_km": 552.7290371355497,
      "semi_major_axis_km": 6927.65757711057,
      "eccentricity": 5.755e-05,
      "inclination_deg": 97.6013,
      "raan_deg": 275.1151,
      "arg_perigee_deg": 111.1798,
      "mean_anomaly_deg": 248.949,
      "mean_motion_rev_day": 15.05646928
    },
    {
      "epoch": "2026-04-03T11:22:03.074016Z",
      "apogee_km": 549.9465204296666,
      "perigee_km": 549.093725837808,
      "latitude_deg": 2.5844918089243957e-05,
      "longitude_deg": -86.6810601724251,
      "height_km": 552.7349389291817,
      "semi_major_axis_km": 6927.657123133737,
      "eccentricity": 6.155e-05,
      "inclination_deg": 97.6012,
      "raan_deg": 275.6392,
      "arg_perigee_deg": 110.663,
      "mean_anomaly_deg": 249.4663,
      "mean_motion_rev_day": 15.05647076
    },
    {
      "epoch": "2026-04-04T01:43:21.409248Z",
      "apogee_km": 549.9265130338244,
      "perigee_km": 549.1305242657318,
      "latitude_deg": 7.46521456632617e-06,
      "longitude_deg": 57.99250263317274,
      "height_km": 552.7543381733121,
      "semi_major_axis_km": 6927.665518649778,
      "eccentricity": 5.745e-05,
      "inclination_deg": 97.6013,
      "raan_deg": 276.2287,
      "arg_perigee_deg": 113.9229,
      "mean_anomaly_deg": 246.2058,
      "mean_motion_rev_day": 15.05644339
    },
    {
      "epoch": "2026-04-05T11:13:02.872704Z",
      "apogee_km": 549.8758024523595,
      "perigee_km": 549.1423032882813,
      "latitude_deg": -3.260441698914953e-05,
      "longitude_deg": -84.43024281784501,
      "height_km": 552.8159112923412,
      "semi_major_axis_km": 6927.64605287032,
      "eccentricity": 5.294e-05,
      "inclination_deg": 97.6012,
      "raan_deg": 277.6043,
      "arg_perigee_deg": 131.3294,
      "mean_anomaly_deg": 228.7978,
      "mean_motion_rev_day": 15.05650685
    },
    {
      "epoch": "2026-04-06T01:34:20.866656Z",
      "apogee_km": 549.937001176495,
      "perigee_km": 549.0794972475469,
      "latitude_deg": -1.236374398500616e-05,
      "longitude_deg": 60.24433974664738,
      "height_km": 552.862155519239,
      "semi_major_axis_km": 6927.645249212021,
      "eccentricity": 6.189e-05,
      "inclination_deg": 97.6011,
      "raan_deg": 278.1934,
      "arg_perigee_deg": 132.4392,
      "mean_anomaly_deg": 227.6887,
      "mean_motion_rev_day": 15.05650947
    },
    {
      "epoch": "2026-04-07T11:04:02.921952Z",
      "apogee_km": 549.980586012608,
      "perigee_km": 549.026372812973,
      "latitude_deg": 8.015396166247745e-06,
      "longitude_deg": -82.18248843017378,
      "height_km": 552.8459199258232,
      "semi_major_axis_km": 6927.64047941279,
      "eccentricity": 6.887e-05,
      "inclination_deg": 97.6009,
      "raan_deg": 279.5674,
      "arg_perigee_deg": 125.6416,
      "mean_anomaly_deg": 234.4875,
      "mean_motion_rev_day": 15.05652502
    },
    {
      "epoch": "2026-04-08T10:59:32.972928Z",
      "apogee_km": 549.9238537154552,
      "perigee_km": 549.1036198682195,
      "latitude_deg": -2.1870846592504964e-05,
      "longitude_deg": -81.05706527568765,
      "height_km": 552.7863119964235,
      "semi_major_axis_km": 6927.6507367918375,
      "eccentricity": 5.92e-05,
      "inclination_deg": 97.6012,
      "raan_deg": 280.5506,
      "arg_perigee_deg": 120.4916,
      "mean_anomaly_deg": 239.6369,
      "mean_motion_rev_day": 15.05649158
    },
    {
      "epoch": "2026-04-09T10:55:03.061056Z",
      "apogee_km": 549.8977408118672,
      "perigee_km": 549.1315425402972,
      "latitude_deg": 4.1305130980041685e-05,
      "longitude_deg": -79.93130969935932,
      "height_km": 552.837448663502,
      "semi_major_axis_km": 6927.651641676081,
      "eccentricity": 5.53e-05,
      "inclination_deg": 97.6023,
      "raan_deg": 281.5343,
      "arg_perigee_deg": 132.3754,
      "mean_anomaly_deg": 227.752,
      "mean_motion_rev_day": 15.05648863
    },
    {
      "epoch": "2026-04-10T06:03:26.776800Z",
      "apogee_km": 549.9285642824716,
      "perigee_km": 549.0832532947416,
      "latitude_deg": -3.082242965663727e-05,
      "longitude_deg": -7.031366539346405,
      "height_km": 552.8626301119527,
      "semi_major_axis_km": 6927.642908788606,
      "eccentricity": 6.101e-05,
      "inclination_deg": 97.6017,
      "raan_deg": 282.3191,
      "arg_perigee_deg": 133.7232,
      "mean_anomaly_deg": 226.4045,
      "mean_motion_rev_day": 15.0565171
    },
    {
      "epoch": "2026-04-11T18:44:33.070848Z",
      "apogee_km": 550.0512386831178,
      "perigee_km": 548.9816089944779,
      "latitude_deg": -2.0667879345386258e-05,
      "longitude_deg": 162.6920011443744,
      "height_km": 552.9341193730637,
      "semi_major_axis_km": 6927.653423838798,
      "eccentricity": 7.72e-05,
      "inclination_deg": 97.6022,
      "raan_deg": 283.8253,
      "arg_perigee_deg": 131.3495,
      "mean_anomaly_deg": 228.7798,
      "mean_motion_rev_day": 15.05648282
    },
    {
      "epoch": "2026-04-12T23:27:09.112320Z",
      "apogee_km": 550.1167585643116,
      "perigee_km": 548.9263097218045,
      "latitude_deg": 3.435388878501159e-05,
      "longitude_deg": 92.04154192506768,
      "height_km": 552.979457096983,
      "semi_major_axis_km": 6927.658534143057,
      "eccentricity": 8.592e-05,
      "inclination_deg": 97.6024,
      "raan_deg": 285.0041,
      "arg_perigee_deg": 131.4042,
      "mean_anomaly_deg": 228.7259,
      "mean_motion_rev_day": 15.05646616
    }
  ]
}